NORAD_CAT_ID,OBJECT_NAME,OBJECT_TYPE,EPOCH,MEAN_MOTION,ECCENTRICITY,INCLINATION,RA_OF_ASC_NODE,ARG_OF_PERICENTER,MEAN_ANOMALY,BSTAR,MEAN_MOTION_DOT,MEAN_MOTION_DDOT,TLE_LINE0,TLE_LINE1,TLE_LINE2,SEMIMAJOR_AXIS,PERIOD,APOGEE,PERIGEE,DECAYED
54061.0,STARLINK-5209,PAYLOAD,2023-04-05 22:00:00,15.10478506,0.0001685,53.2186,66.7704,94.4417,106.9827,0.0019546,0.00032397,0.0,0 STARLINK-5209,1 54061U 22136L   23095.91667824  .00032397  00000-0  19546-2 0  9993,2 54061  53.2186  66.7704 0001685  94.4417 106.9827 15.10478506  1306,6912.877,95.334,535.906,533.577,0.0
54061.0,STARLINK-5209,PAYLOAD,2023-04-06 14:00:01,15.10473535,0.0001618,53.2183,63.7708,97.4572,131.1685,-0.00091642,-0.00015515,0.0,0 STARLINK-5209,1 54061U 22136L   23096.58335648 -.00015515  00000-0 -91642-3 0  9996,2 54061  53.2183  63.7708 0001618  97.4572 131.1685 15.10473535 26570,6912.892,95.334,535.875,533.638,0.0
54061.0,STARLINK-5209,PAYLOAD,2023-04-06 22:00:00,15.10474379,0.0001712,53.2185,62.2703,106.4625,135.6439,0.0016044,0.00026515,0.0,0 STARLINK-5209,1 54061U 22136L   23096.91667824  .00026515  00000-0  16044-2 0  9999,2 54061  53.2185  62.2703 0001712 106.4625 135.6439 15.10474379  1303,6912.889,95.334,535.938,533.571,0.0
54061.0,STARLINK-5209,PAYLOAD,2023-04-07 08:00:01,15.10451573,0.000166,53.2184,60.397,101.464,247.6145,0.0016512,0.00027283,0.0,0 STARLINK-5209,1 54061U 22136L   23097.33334491  .00027283  00000-0  16512-2 0  9990,2 54061  53.2184  60.3970 0001660 101.4640 247.6145 15.10451573 26688,6912.959,95.336,535.971,533.676,0.0
54061.0,STARLINK-5209,PAYLOAD,2023-04-07 14:00:01,15.10457282,0.0001723,53.2183,59.2708,107.0083,162.1921,-0.00066288,-0.00011305,0.0,0 STARLINK-5209,1 54061U 22136L   23097.58334491 -.00011305  00000-0 -66288-3 0  9993,2 54061  53.2183  59.2708 0001723 107.0083 162.1921 15.10457282 26727,6912.941,95.335,535.998,533.615,0.0
54061.0,STARLINK-5209,PAYLOAD,2023-04-08 06:00:00,15.1045885,0.0001762,53.2184,56.2722,104.6593,191.6275,0.0023805,0.00039539,0.0,0 STARLINK-5209,1 54061U 22136L   23098.25001157  .00039539  00000-0  23805-2 0  9992,2 54061  53.2184  56.2722 0001762 104.6593 191.6275 15.10458850 26825,6912.937,95.335,536.02,533.584,0.0
54061.0,STARLINK-5209,PAYLOAD,2023-04-08 14:00:01,15.10500521,0.0001715,53.2183,54.7709,110.3436,199.5072,-0.00029579,-5.217e-05,0.0,0 STARLINK-5209,1 54061U 22136L   23098.58334491 -.00005217  00000-0 -29579-3 0  9991,2 54061  53.2183  54.7709 0001715 110.3436 199.5072 15.10500521  1301,6912.809,95.333,535.86,533.489,0.0
54061.0,STARLINK-5209,PAYLOAD,2023-04-09 06:06:07,15.10514842,0.0001776,53.2184,51.7506,109.3003,250.8182,0.0011051,0.00018171,0.0,0 STARLINK-5209,1 54061U 22136L   23099.25425245  .00018171  00000-0  11051-2 0  9990,2 54061  53.2184  51.7506 0001776 109.3003 250.8182 15.10514842 26973,6912.766,95.332,535.859,533.403,0.0
54061.0,STARLINK-5209,PAYLOAD,2023-04-09 20:23:39,15.10504614,0.000192,53.2186,49.0707,109.3234,250.7966,0.00058531,9.472e-05,0.0,0 STARLINK-5209,1 54061U 22136L   23099.84976272  .00009472  00000-0  58531-3 0  9995,2 54061  53.2186  49.0707 0001920 109.3234 250.7966 15.10504614 26587,6912.797,95.332,535.989,533.335,0.0
54061.0,STARLINK-5209,PAYLOAD,2023-04-09 23:34:13,15.10502654,0.000162,53.2186,48.475,110.1826,249.9341,0.0005956,9.643e-05,0.0,0 STARLINK-5209,1 54061U 22136L   23099.98209825  .00009643  00000-0  59560-3 0  9996,2 54061  53.2186  48.4750 0001620 110.1826 249.9341 15.10502654 27087,6912.803,95.333,535.788,533.548,0.0
54061.0,STARLINK-5209,PAYLOAD,2023-04-10 05:55:20,15.1049926,0.0001845,53.2189,47.2832,115.5024,244.616,0.00091284,0.00014946,0.0,0 STARLINK-5209,1 54061U 22136L   23100.24676862  .00014946  00000-0  91284-3 0  9998,2 54061  53.2189  47.2832 0001845 115.5024 244.6160 15.10499260 26646,6912.813,95.333,535.954,533.403,0.0
54061.0,STARLINK-5209,PAYLOAD,2023-04-10 20:12:53,15.10481787,0.0001946,53.2191,44.6043,102.7914,257.3296,0.00068644,0.00011155,0.0,0 STARLINK-5209,1 54061U 22136L   23100.84228639  .00011155  00000-0  68644-3 0  9992,2 54061  53.2191  44.6043 0001946 102.7914 257.3296 15.10481787 27212,6912.867,95.334,536.077,533.386,0.0
54061.0,STARLINK-5209,PAYLOAD,2023-04-11 05:44:35,15.1048523,0.0001716,53.2187,42.8172,99.2844,260.8343,0.00065822,0.00010684,0.0,0 STARLINK-5209,1 54061U 22136L   23101.23929504  .00010684  00000-0  65822-3 0  9996,2 54061  53.2187  42.8172 0001716  99.2844 260.8343 15.10485230 26798,6912.856,95.334,535.907,533.535,0.0
54061.0,STARLINK-5209,PAYLOAD,2023-04-11 20:02:07,15.10470085,0.0001518,53.2189,40.1378,99.4791,260.6374,0.00045758,7.332e-05,0.0,0 STARLINK-5209,1 54061U 22136L   23101.83481406  .00007332  00000-0  45758-3 0  9998,2 54061  53.2189  40.1378 0001518  99.4791 260.6374 15.10470085 27360,6912.902,95.335,535.817,533.718,0.0
54061.0,STARLINK-5209,PAYLOAD,2023-04-12 05:33:49,15.10483794,0.0001403,53.2189,38.3511,93.7062,266.4092,0.00079664,0.00012997,0.0,0 STARLINK-5209,1 54061U 22136L   23102.23182265  .00012997  00000-0  79664-3 0  9990,2 54061  53.2189  38.3511 0001403  93.7062 266.4092 15.10483794 26944,6912.861,95.334,535.695,533.756,0.0
54061.0,STARLINK-5209,PAYLOAD,2023-04-12 19:51:22,15.10472907,0.0001492,53.2184,35.6698,96.8977,263.2185,0.00044325,7.093e-05,0.0,0 STARLINK-5209,1 54061U 22136L   23102.82733982  .00007093  00000-0  44325-3 0  9990,2 54061  53.2184  35.6698 0001492  96.8977 263.2185 15.10472907 27518,6912.894,95.334,535.79,533.727,0.0
54061.0,STARLINK-5209,PAYLOAD,2023-04-13 03:47:46,15.10483638,0.0001541,53.2189,34.1818,100.5428,259.5739,0.00034097,5.389e-05,0.0,0 STARLINK-5209,1 54061U 22136L   23103.15817802  .00005389  00000-0  34097-3 0  9992,2 54061  53.2189  34.1818 0001541 100.5428 259.5739 15.10483638 27088,6912.861,95.334,535.791,533.661,0.0
54061.0,STARLINK-5209,PAYLOAD,2023-04-14 05:12:16,15.10504708,0.0001249,53.2185,29.4174,95.6647,264.4489,0.0007829,0.00012775,0.0,0 STARLINK-5209,1 54061U 22136L   23104.21686113  .00012775  00000-0  78290-3 0  9999,2 54061  53.2185  29.4174 0001249  95.6647 264.4489 15.10504708 27245,6912.797,95.332,535.525,533.798,0.0
54061.0,STARLINK-5209,PAYLOAD,2023-04-15 00:15:40,15.10493221,0.0001369,53.2185,25.8416,103.7942,256.3203,0.00011689,1.655e-05,0.0,0 STARLINK-5209,1 54061U 22136L   23105.01088035  .00001655  00000-0  11689-3 0  9991,2 54061  53.2185  25.8416 0001369 103.7942 256.3203 15.10493221 27843,6912.832,95.333,535.643,533.75,0.0
54061.0,STARLINK-5209,PAYLOAD,2023-04-15 05:01:30,15.10492549,0.0001073,53.2182,24.9511,91.1433,268.9683,0.00038454,6.118e-05,0.0,0 STARLINK-5209,1 54061U 22136L   23105.20938202  .00006118  00000-0  38454-3 0  9990,2 54061  53.2182  24.9511 0001073  91.1433 268.9683 15.10492549 27396,6912.834,95.333,535.441,533.957,0.0
54061.0,STARLINK-5209,PAYLOAD,2023-04-15 17:43:46,15.10473065,0.0001483,53.2183,22.5681,87.9539,272.1624,3.9736e-05,3.69e-06,0.0,0 STARLINK-5209,1 54061U 22136L   23105.73873439  .00000369  00000-0  39736-4 0  9995,2 54061  53.2183  22.5681 0001483  87.9539 272.1624 15.10473065 27477,6912.893,95.334,535.783,533.733,0.0
54061.0,STARLINK-5209,PAYLOAD,2023-04-16 03:15:28,15.10484026,0.0001165,53.2183,20.7817,97.0815,263.0311,0.00058655,9.487e-05,0.0,0 STARLINK-5209,1 54061U 22136L   23106.13574259  .00009487  00000-0  58655-3 0  9998,2 54061  53.2183  20.7817 0001165  97.0815 263.0311 15.10484026 27532,6912.86,95.334,535.53,533.919,0.0
54061.0,STARLINK-5209,PAYLOAD,2023-04-17 03:04:42,15.1048402,9.93e-05,53.2178,16.3147,100.6756,259.4349,0.00054633,8.816e-05,0.0,0 STARLINK-5209,1 54061U 22136L   23107.12826838  .00008816  00000-0  54633-3 0  9998,2 54061  53.2178  16.3147 0000993 100.6756 259.4349 15.10484020 28160,6912.86,95.334,535.411,534.038,0.0
54061.0,STARLINK-5209,PAYLOAD,2023-04-17 17:22:14,15.10485045,0.0001318,53.2164,13.6383,73.1557,286.958,0.00046313,7.427e-05,0.0,0 STARLINK-5209,1 54061U 22136L   23107.72378304  .00007427  00000-0  46313-3 0  9997,2 54061  53.2164  13.6383 0001318  73.1557 286.9580 15.10485045 28252,6912.857,95.334,535.633,533.811,0.0
54061.0,STARLINK-5209,PAYLOAD,2023-04-18 09:15:16,15.1021001,0.000144,53.2191,10.6583,68.1722,291.9424,-0.0042114,-0.0006922,0.0,0 STARLINK-5209,1 54061U 22136L   23108.38560432 -.00069220  00000-0 -42114-2 0  9990,2 54061  53.2191  10.6583 0001440  68.1722 291.9424 15.10210010 27873,6913.696,95.351,536.557,534.565,0.0
54061.0,STARLINK-5209,PAYLOAD,2023-04-18 17:11:55,15.10061599,0.0001217,53.2156,9.1751,88.083,272.0302,-0.0048075,-0.00078551,0.0,0 STARLINK-5209,1 54061U 22136L   23108.71661206 -.00078551  00000-0 -48075-2 0  9997,2 54061  53.2156   9.1751 0001217  88.0830 272.0302 15.10061599 28408,6914.149,95.36,536.855,535.173,0.0
54061.0,STARLINK-5209,PAYLOAD,2023-04-18 23:33:18,15.09857494,0.0001183,53.2191,7.9796,92.8538,267.259,-0.0068555,-0.00110766,0.0,0 STARLINK-5209,1 54061U 22136L   23108.98146920 -.00110766  00000-0 -68555-2 0  9997,2 54061  53.2191   7.9796 0001183  92.8538 267.2590 15.09857494 28446,6914.772,95.373,537.455,535.819,0.0
54061.0,STARLINK-5209,PAYLOAD,2023-04-19 20:13:04,15.0930326,0.0001202,53.2182,4.1158,88.9764,271.1366,-0.0099112,-0.00156589,0.0,0 STARLINK-5209,1 54061U 22136L   23109.84241650 -.00156589  00000-0 -99112-2 0  9995,2 54061  53.2182   4.1158 0001202  88.9764 271.1366 15.09303260 28099,6916.465,95.408,539.161,537.498,0.0
54061.0,STARLINK-5209,PAYLOAD,2023-04-20 08:00:01,15.08831866,0.0001322,53.2175,1.9116,92.6487,55.6011,0.00010783,1.428e-05,0.0,0 STARLINK-5209,1 54061U 22136L   23110.33335648  .00001428  00000-0  10783-3 0  9999,2 54061  53.2175   1.9116 0001322  92.6487  55.6011 15.08831866 28658,6917.905,95.438,540.685,538.856,0.0
54061.0,STARLINK-5209,PAYLOAD,2023-04-20 14:00:01,15.08802749,0.0001308,53.2176,0.7882,99.8254,327.0474,0.00448,0.00071663,0.0,0 STARLINK-5209,1 54061U 22136L   23110.58334491  .00071663  00000-0  44800-2 0  9995,2 54061  53.2176   0.7882 0001308  99.8254 327.0474 15.08802749  1301,6917.994,95.44,540.764,538.954,0.0
